FENGYUN 1C DEB          
1 31051U 99025BEV 17345.25530034 -.00000088  00000-0 -27670-4 0  9991
2 31051  99.1975   8.6332 0054636 326.8129  32.9612 14.01325749228594
